[{"OBJECT_NAME":"STARLINK-31704","OBJECT_ID":"2024-076Y","EPOCH":"2026-03-09T22:00:01.999584","MEAN_MOTION":15.30892355,"ECCENTRICITY":0.00079744,"INCLINATION":42.9978,"RA_OF_ASC_NODE":323.2923,"ARG_OF_PERICENTER":240.5046,"MEAN_ANOMALY":200.4144,"EPHEMERIS_TYPE":0,"CLASSIFICATION_TYPE":"U","NORAD_CAT_ID":59586,"ELEMENT_SET_NO":999,"REV_AT_EPOCH":581,"BSTAR":0.0024766131,"MEAN_MOTION_DOT":0.00076042,"MEAN_MOTION_DDOT":0},{"OBJECT_NAME":"STARLINK-35544","OBJECT_ID":"2025-225N","EPOCH":"2026-03-09T11:35:27.559968","MEAN_MOTION":15.30217116,"ECCENTRICITY":0.00015908,"INCLINATION":53.1585,"RA_OF_ASC_NODE":166.8394,"ARG_OF_PERICENTER":149.3151,"MEAN_ANOMALY":210.7943,"EPHEMERIS_TYPE":0,"CLASSIFICATION_TYPE":"U","NORAD_CAT_ID":65922,"ELEMENT_SET_NO":999,"REV_AT_EPOCH":2437,"BSTAR":0.00089130885,"MEAN_MOTION_DOT":0.00026146,"MEAN_MOTION_DDOT":0}]
